[{"OBJECT_NAME":"GPS BIIR-2  (PRN 13)","OBJECT_ID":"1997-035A","EPOCH":"2026-03-05T23:53:42.720576","MEAN_MOTION":2.00564004,"ECCENTRICITY":0.00979907,"INCLINATION":55.9363,"RA_OF_ASC_NODE":102.6088,"ARG_OF_PERICENTER":56.2514,"MEAN_ANOMALY":304.7521,"EPHEMERIS_TYPE":0,"CLASSIFICATION_TYPE":"U","NORAD_CAT_ID":24876,"ELEMENT_SET_NO":999,"REV_AT_EPOCH":20988,"BSTAR":0,"MEAN_MOTION_DOT":5.0e-8,"MEAN_MOTION_DDOT":0},{"OBJECT_NAME":"GPS BIIR-5  (PRN 22)","OBJECT_ID":"2000-040A","EPOCH":"2026-03-06T19:47:29.059296","MEAN_MOTION":2.00568995,"ECCENTRICITY":0.01226438,"INCLINATION":54.875,"RA_OF_ASC_NODE":219.2256,"ARG_OF_PERICENTER":302.5332,"MEAN_ANOMALY":230.2733,"EPHEMERIS_TYPE":0,"CLASSIFICATION_TYPE":"U","NORAD_CAT_ID":26407,"ELEMENT_SET_NO":999,"REV_AT_EPOCH":18789,"BSTAR":0,"MEAN_MOTION_DOT":2.5e-7,"MEAN_MOTION_DDOT":0},{"OBJECT_NAME":"GPS BIIR-8  (PRN 16)","OBJECT_ID":"2003-005A","EPOCH":"2026-03-06T09:53:39.321888","MEAN_MOTION":2.005662,"ECCENTRICITY":0.01487327,"INCLINATION":54.9069,"RA_OF_ASC_NODE":219.0498,"ARG_OF_PERICENTER":52.7313,"MEAN_ANOMALY":318.1949,"EPHEMERIS_TYPE":0,"CLASSIFICATION_TYPE":"U","NORAD_CAT_ID":27663,"ELEMENT_SET_NO":999,"REV_AT_EPOCH":16925,"BSTAR":0,"MEAN_MOTION_DOT":2.0e-7,"MEAN_MOTION_DDOT":0},{"OBJECT_NAME":"GPS BIIR-11 (PRN 19)","OBJECT_ID":"2004-009A","EPOCH":"2026-03-07T14:00:06.040800","MEAN_MOTION":2.00558069,"ECCENTRICITY":0.0111094,"INCLINATION":54.9132,"RA_OF_ASC_NODE":279.7911,"ARG_OF_PERICENTER":169.1473,"MEAN_ANOMALY":123.2267,"EPHEMERIS_TYPE":0,"CLASSIFICATION_TYPE":"U","NORAD_CAT_ID":28190,"ELEMENT_SET_NO":999,"REV_AT_EPOCH":16090,"BSTAR":0,"MEAN_MOTION_DOT":-1.6e-7,"MEAN_MOTION_DDOT":0},{"OBJECT_NAME":"GPS BIIR-13 (PRN 02)","OBJECT_ID":"2004-045A","EPOCH":"2026-03-06T09:14:23.383968","MEAN_MOTION":2.00573556,"ECCENTRICITY":0.01708115,"INCLINATION":55.1936,"RA_OF_ASC_NODE":329.0394,"ARG_OF_PERICENTER":312.9081,"MEAN_ANOMALY":257.6882,"EPHEMERIS_TYPE":0,"CLASSIFICATION_TYPE":"U","NORAD_CAT_ID":28474,"ELEMENT_SET_NO":999,"REV_AT_EPOCH":15636,"BSTAR":0,"MEAN_MOTION_DOT":-9.5e-7,"MEAN_MOTION_DDOT":0},{"OBJECT_NAME":"GPS BIIRM-1 (PRN 17)","OBJECT_ID":"2005-038A","EPOCH":"2026-03-06T15:45:49.229856","MEAN_MOTION":2.0057291,"ECCENTRICITY":0.0128744,"INCLINATION":54.9613,"RA_OF_ASC_NODE":277.314,"ARG_OF_PERICENTER":295.3788,"MEAN_ANOMALY":71.8812,"EPHEMERIS_TYPE":0,"CLASSIFICATION_TYPE":"U","NORAD_CAT_ID":28874,"ELEMENT_SET_NO":999,"REV_AT_EPOCH":14978,"BSTAR":0,"MEAN_MOTION_DOT":-1.7e-7,"MEAN_MOTION_DDOT":0},{"OBJECT_NAME":"INMARSAT 4-F2 (SOUTHPAN/PRN 122)","OBJECT_ID":"2005-044A","EPOCH":"2026-03-07T07:45:18.412992","MEAN_MOTION":1.00271561,"ECCENTRICITY":0.0002739,"INCLINATION":4.9615,"RA_OF_ASC_NODE":43.8045,"ARG_OF_PERICENTER":326.01,"MEAN_ANOMALY":55.0374,"EPHEMERIS_TYPE":0,"CLASSIFICATION_TYPE":"U","NORAD_CAT_ID":28899,"ELEMENT_SET_NO":999,"REV_AT_EPOCH":7450,"BSTAR":0,"MEAN_MOTION_DOT":-2.61e-6,"MEAN_MOTION_DDOT":0},{"OBJECT_NAME":"GPS BIIRM-2 (PRN 31)","OBJECT_ID":"2006-042A","EPOCH":"2026-03-06T09:11:08.464704","MEAN_MOTION":2.00575308,"ECCENTRICITY":0.01067059,"INCLINATION":54.6979,"RA_OF_ASC_NODE":155.4216,"ARG_OF_PERICENTER":52.9105,"MEAN_ANOMALY":13.4555,"EPHEMERIS_TYPE":0,"CLASSIFICATION_TYPE":"U","NORAD_CAT_ID":29486,"ELEMENT_SET_NO":999,"REV_AT_EPOCH":14233,"BSTAR":0,"MEAN_MOTION_DOT":9.0e-8,"MEAN_MOTION_DDOT":0},{"OBJECT_NAME":"GPS BIIRM-3 (PRN 12)","OBJECT_ID":"2006-052A","EPOCH":"2026-03-06T16:57:50.819616","MEAN_MOTION":2.00551839,"ECCENTRICITY":0.00878314,"INCLINATION":54.9563,"RA_OF_ASC_NODE":218.066,"ARG_OF_PERICENTER":89.3999,"MEAN_ANOMALY":271.562,"EPHEMERIS_TYPE":0,"CLASSIFICATION_TYPE":"U","NORAD_CAT_ID":29601,"ELEMENT_SET_NO":999,"REV_AT_EPOCH":14135,"BSTAR":0,"MEAN_MOTION_DOT":2.3e-7,"MEAN_MOTION_DDOT":0},{"OBJECT_NAME":"GPS BIIRM-4 (PRN 15)","OBJECT_ID":"2007-047A","EPOCH":"2026-03-06T00:23:33.368352","MEAN_MOTION":2.00560687,"ECCENTRICITY":0.01636139,"INCLINATION":54.017,"RA_OF_ASC_NODE":84.3168,"ARG_OF_PERICENTER":85.9747,"MEAN_ANOMALY":275.9459,"EPHEMERIS_TYPE":0,"CLASSIFICATION_TYPE":"U","NORAD_CAT_ID":32260,"ELEMENT_SET_NO":999,"REV_AT_EPOCH":13474,"BSTAR":0,"MEAN_MOTION_DOT":-1.5e-7,"MEAN_MOTION_DDOT":0},{"OBJECT_NAME":"COSMOS 2433 (720)","OBJECT_ID":"2007-052A","EPOCH":"2026-03-07T02:04:54.738624","MEAN_MOTION":2.13104061,"ECCENTRICITY":0.0001908,"INCLINATION":65.6333,"RA_OF_ASC_NODE":319.3711,"ARG_OF_PERICENTER":271.0013,"MEAN_ANOMALY":89.0347,"EPHEMERIS_TYPE":0,"CLASSIFICATION_TYPE":"U","NORAD_CAT_ID":32275,"ELEMENT_SET_NO":999,"REV_AT_EPOCH":14288,"BSTAR":0,"MEAN_MOTION_DOT":-6.2e-7,"MEAN_MOTION_DDOT":0},{"OBJECT_NAME":"COSMOS 2432 (719)","OBJECT_ID":"2007-052B","EPOCH":"2026-03-06T10:53:52.340928","MEAN_MOTION":2.13103095,"ECCENTRICITY":0.00105128,"INCLINATION":65.6497,"RA_OF_ASC_NODE":319.5182,"ARG_OF_PERICENTER":331.0793,"MEAN_ANOMALY":207.8154,"EPHEMERIS_TYPE":0,"CLASSIFICATION_TYPE":"U","NORAD_CAT_ID":32276,"ELEMENT_SET_NO":999,"REV_AT_EPOCH":14289,"BSTAR":0,"MEAN_MOTION_DOT":-6.1e-7,"MEAN_MOTION_DDOT":0},{"OBJECT_NAME":"GPS BIIRM-5 (PRN 29)","OBJECT_ID":"2007-062A","EPOCH":"2026-03-06T01:54:28.774080","MEAN_MOTION":2.00553677,"ECCENTRICITY":0.00329705,"INCLINATION":55.1135,"RA_OF_ASC_NODE":278.2961,"ARG_OF_PERICENTER":160.6738,"MEAN_ANOMALY":12.9295,"EPHEMERIS_TYPE":0,"CLASSIFICATION_TYPE":"U","NORAD_CAT_ID":32384,"ELEMENT_SET_NO":999,"REV_AT_EPOCH":13344,"BSTAR":0,"MEAN_MOTION_DOT":-2.0e-7,"MEAN_MOTION_DDOT":0},{"OBJECT_NAME":"COSMOS 2434 (721)","OBJECT_ID":"2007-065A","EPOCH":"2026-03-05T14:01:41.496384","MEAN_MOTION":2.13101183,"ECCENTRICITY":0.0003739,"INCLINATION":64.3181,"RA_OF_ASC_NODE":195.4072,"ARG_OF_PERICENTER":70.4545,"MEAN_ANOMALY":107.4157,"EPHEMERIS_TYPE":0,"CLASSIFICATION_TYPE":"U","NORAD_CAT_ID":32393,"ELEMENT_SET_NO":999,"REV_AT_EPOCH":14156,"BSTAR":0,"MEAN_MOTION_DOT":1.6e-7,"MEAN_MOTION_DDOT":0},{"OBJECT_NAME":"COSMOS 2436 (723)","OBJECT_ID":"2007-065C","EPOCH":"2026-03-04T01:08:09.746592","MEAN_MOTION":2.13099973,"ECCENTRICITY":0.00175306,"INCLINATION":64.3269,"RA_OF_ASC_NODE":195.53,"ARG_OF_PERICENTER":7.4777,"MEAN_ANOMALY":203.8673,"EPHEMERIS_TYPE":0,"CLASSIFICATION_TYPE":"U","NORAD_CAT_ID":32395,"ELEMENT_SET_NO":999,"REV_AT_EPOCH":14148,"BSTAR":0,"MEAN_MOTION_DOT":0,"MEAN_MOTION_DDOT":0},{"OBJECT_NAME":"GPS BIIRM-6 (PRN 07)","OBJECT_ID":"2008-012A","EPOCH":"2026-03-07T10:19:35.061888","MEAN_MOTION":2.00569334,"ECCENTRICITY":0.02071478,"INCLINATION":54.4825,"RA_OF_ASC_NODE":153.9913,"ARG_OF_PERICENTER":246.2396,"MEAN_ANOMALY":111.6171,"EPHEMERIS_TYPE":0,"CLASSIFICATION_TYPE":"U","NORAD_CAT_ID":32711,"ELEMENT_SET_NO":999,"REV_AT_EPOCH":13171,"BSTAR":0,"MEAN_MOTION_DOT":3.0e-8,"MEAN_MOTION_DDOT":0},{"OBJECT_NAME":"GPS BIIRM-8 (PRN 05)","OBJECT_ID":"2009-043A","EPOCH":"2026-03-06T22:09:33.207264","MEAN_MOTION":2.00560347,"ECCENTRICITY":0.00517549,"INCLINATION":56.1499,"RA_OF_ASC_NODE":31.4687,"ARG_OF_PERICENTER":80.7022,"MEAN_ANOMALY":289.0531,"EPHEMERIS_TYPE":0,"CLASSIFICATION_TYPE":"U","NORAD_CAT_ID":35752,"ELEMENT_SET_NO":999,"REV_AT_EPOCH":12131,"BSTAR":0,"MEAN_MOTION_DOT":-8.2e-7,"MEAN_MOTION_DDOT":0}]
